start=new Date('2022-12-21T00:00:00.000Z').valueOf();
sats=[{"DECAY_DATE":null,"RA_OF_ASC_NODE":"109.9462","EPHEMERIS_TYPE":"0","MEAN_MOTION_DOT":"0.00002775","EPOCH":"2022-12-20T10:40:58.935648","BSTAR":"0.00019233000000","MEAN_ANOMALY":"319.4061","CENTER_NAME":"EARTH","MEAN_MOTION_DDOT":"0.0000000000000","TLE_LINE2":"2 53621  53.2182 109.9462 0001981  40.7079 319.4061 15.08846462 18217","MEAN_MOTION":"15.08846462","REF_FRAME":"TEME","FILE":"3713130","TIME_SYSTEM":"UTC","NORAD_CAT_ID":"53621","LAUNCH_DATE":"2022-08-28","GP_ID":"221029871","MEAN_ELEMENT_THEORY":"SGP4","SEMIMAJOR_AXIS":"6917.861","OBJECT_ID":"2022-104AK","REV_AT_EPOCH":"1821","COUNTRY_CODE":"US","RCS_SIZE":"LARGE","PERIOD":"95.437","TLE_LINE1":"1 53621U 22104AK  22354.44512657  .00002775  00000-0  19233-3 0  9998","SITE":"AFETR","ARG_OF_PERICENTER":"40.7079","PERIAPSIS":"538.355","INCLINATION":"53.2182","APOAPSIS":"541.096","CLASSIFICATION_TYPE":"U","ECCENTRICITY":"0.00019810","ELEMENT_SET_NO":"999","OBJECT_NAME":"STARLINK-4608","OBJECT_TYPE":"PAYLOAD"},{"REF_FRAME":"TEME","MEAN_MOTION":"15.08832437","NORAD_CAT_ID":"53622","LAUNCH_DATE":"2022-08-28","GP_ID":"221045244","TIME_SYSTEM":"UTC","FILE":"3714175","DECAY_DATE":null,"RA_OF_ASC_NODE":"108.3599","MEAN_MOTION_DDOT":"0.0000000000000","CENTER_NAME":"EARTH","TLE_LINE2":"2 53622  53.2170 108.3599 0001844  43.4729 316.6408 15.08832437 17691","EPOCH":"2022-12-20T18:12:47.644128","MEAN_MOTION_DOT":"0.00000242","BSTAR":"0.00003330400000","EPHEMERIS_TYPE":"0","MEAN_ANOMALY":"316.6408","PERIAPSIS":"538.493","APOAPSIS":"541.044","INCLINATION":"53.2170","OBJECT_NAME":"STARLINK-4568","ELEMENT_SET_NO":"999","ECCENTRICITY":"0.00018440","OBJECT_TYPE":"PAYLOAD","CLASSIFICATION_TYPE":"U","SEMIMAJOR_AXIS":"6917.904","REV_AT_EPOCH":"1769","OBJECT_ID":"2022-104AL","MEAN_ELEMENT_THEORY":"SGP4","ARG_OF_PERICENTER":"43.4729","SITE":"AFETR","RCS_SIZE":"LARGE","COUNTRY_CODE":"US","PERIOD":"95.438","TLE_LINE1":"1 53622U 22104AL  22354.75888477  .00000242  00000-0  33304-4 0  9992"},{"GP_ID":"221043095","NORAD_CAT_ID":"53623","LAUNCH_DATE":"2022-08-28","TIME_SYSTEM":"UTC","FILE":"3714084","REF_FRAME":"TEME","MEAN_MOTION":"15.08840157","TLE_LINE2":"2 53623  53.2185 108.1155 0001768  44.6420 315.4715 15.08840157 17708","MEAN_MOTION_DDOT":"0.0000000000000","CENTER_NAME":"EARTH","MEAN_ANOMALY":"315.4715","MEAN_MOTION_DOT":"-0.00000441","BSTAR":"-0.00000961010000","EPOCH":"2022-12-20T20:02:41.368992","EPHEMERIS_TYPE":"0","RA_OF_ASC_NODE":"108.1155","DECAY_DATE":null,"OBJECT_TYPE":"PAYLOAD","OBJECT_NAME":"STARLINK-4573","ECCENTRICITY":"0.00017680","ELEMENT_SET_NO":"999","CLASSIFICATION_TYPE":"U","APOAPSIS":"540.968","INCLINATION":"53.2185","PERIAPSIS":"538.522","SITE":"AFETR","ARG_OF_PERICENTER":"44.6420","PERIOD":"95.438","TLE_LINE1":"1 53623U 22104AM  22354.83520103 -.00000441  00000-0 -96101-5 0  9999","RCS_SIZE":"LARGE","COUNTRY_CODE":"US","OBJECT_ID":"2022-104AM","REV_AT_EPOCH":"1770","SEMIMAJOR_AXIS":"6917.880","MEAN_ELEMENT_THEORY":"SGP4"},{"FILE":"3713130","TIME_SYSTEM":"UTC","GP_ID":"221029232","NORAD_CAT_ID":"53624","LAUNCH_DATE":"2022-08-28","MEAN_MOTION":"15.08852582","REF_FRAME":"TEME","MEAN_ANOMALY":"313.2697","MEAN_MOTION_DOT":"0.00002872","EPOCH":"2022-12-20T11:49:49.984896","BSTAR":"0.00019843000000","EPHEMERIS_TYPE":"0","TLE_LINE2":"2 53624  53.2165 109.5375 0001767  46.8442 313.2697 15.08852582 18333","MEAN_MOTION_DDOT":"0.0000000000000","CENTER_NAME":"EARTH","RA_OF_ASC_NODE":"109.5375","DECAY_DATE":null,"CLASSIFICATION_TYPE":"U","OBJECT_TYPE":"PAYLOAD","OBJECT_NAME":"STARLINK-4596","ECCENTRICITY":"0.00017670","ELEMENT_SET_NO":"999","APOAPSIS":"540.929","INCLINATION":"53.2165","PERIAPSIS":"538.485","PERIOD":"95.437","TLE_LINE1":"1 53624U 22104AN  22354.49293964  .00002872  00000-0  19843-3 0  9998","RCS_SIZE":"LARGE","COUNTRY_CODE":"US","ARG_OF_PERICENTER":"46.8442","SITE":"AFETR","MEAN_ELEMENT_THEORY":"SGP4","OBJECT_ID":"2022-104AN","REV_AT_EPOCH":"1833","SEMIMAJOR_AXIS":"6917.842"},{"CLASSIFICATION_TYPE":"U","OBJECT_TYPE":"PAYLOAD","OBJECT_NAME":"STARLINK-4603","ECCENTRICITY":"0.00019770","ELEMENT_SET_NO":"999","APOAPSIS":"541.070","INCLINATION":"53.2171","PERIAPSIS":"538.335","TLE_LINE1":"1 53625U 22104AP  22354.49662667  .00003901  00000-0  26299-3 0  9996","PERIOD":"95.437","RCS_SIZE":"LARGE","COUNTRY_CODE":"US","ARG_OF_PERICENTER":"42.1024","SITE":"AFETR","MEAN_ELEMENT_THEORY":"SGP4","OBJECT_ID":"2022-104AP","REV_AT_EPOCH":"1833","SEMIMAJOR_AXIS":"6917.837","FILE":"3713130","TIME_SYSTEM":"UTC","GP_ID":"221029445","LAUNCH_DATE":"2022-08-28","NORAD_CAT_ID":"53625","MEAN_MOTION":"15.08854051","REF_FRAME":"TEME","MEAN_ANOMALY":"318.0120","MEAN_MOTION_DOT":"0.00003901","BSTAR":"0.00026299000000","EPOCH":"2022-12-20T11:55:08.544288","EPHEMERIS_TYPE":"0","TLE_LINE2":"2 53625  53.2171 109.5585 0001977  42.1024 318.0120 15.08854051 18339","MEAN_MOTION_DDOT":"0.0000000000000","CENTER_NAME":"EARTH","RA_OF_ASC_NODE":"109.5585","DECAY_DATE":null},{"OBJECT_TYPE":"PAYLOAD","OBJECT_NAME":"STARLINK-4554","ECCENTRICITY":"0.00023180","ELEMENT_SET_NO":"999","CLASSIFICATION_TYPE":"U","APOAPSIS":"541.358","INCLINATION":"53.2185","PERIAPSIS":"538.151","SITE":"AFETR","ARG_OF_PERICENTER":"31.1753","TLE_LINE1":"1 53626U 22104AQ  22354.74685014 -.00000389  00000-0 -63502-5 0  9995","PERIOD":"95.438","RCS_SIZE":"LARGE","COUNTRY_CODE":"US","REV_AT_EPOCH":"1769","OBJECT_ID":"2022-104AQ","SEMIMAJOR_AXIS":"6917.889","MEAN_ELEMENT_THEORY":"SGP4","GP_ID":"221043103","NORAD_CAT_ID":"53626","LAUNCH_DATE":"2022-08-28","FILE":"3714085","TIME_SYSTEM":"UTC","REF_FRAME":"TEME","MEAN_MOTION":"15.08837117","TLE_LINE2":"2 53626  53.2185 108.2895 0002318  31.1753 328.9376 15.08837117 17697","MEAN_MOTION_DDOT":"0.0000000000000","CENTER_NAME":"EARTH","MEAN_ANOMALY":"328.9376","MEAN_MOTION_DOT":"-0.00000389","EPOCH":"2022-12-20T17:55:27.852096","BSTAR":"-0.00000635020000","EPHEMERIS_TYPE":"0","RA_OF_ASC_NODE":"108.2895","DECAY_DATE":null},{"PERIOD":"95.438","TLE_LINE1":"1 53627U 22104AR  22354.82046320  .00000840  00000-0  70850-4 0  9999","RCS_SIZE":"LARGE","COUNTRY_CODE":"US","SITE":"AFETR","ARG_OF_PERICENTER":"46.2938","MEAN_ELEMENT_THEORY":"SGP4","OBJECT_ID":"2022-104AR","REV_AT_EPOCH":"1770","SEMIMAJOR_AXIS":"6917.883","CLASSIFICATION_TYPE":"U","OBJECT_TYPE":"PAYLOAD","OBJECT_NAME":"STARLINK-4595","ECCENTRICITY":"0.00017740","ELEMENT_SET_NO":"999","APOAPSIS":"540.976","INCLINATION":"53.2164","PERIAPSIS":"538.521","MEAN_ANOMALY":"313.8200","MEAN_MOTION_DOT":"0.00000840","BSTAR":"0.00007085000000","EPOCH":"2022-12-20T19:41:28.020480","EPHEMERIS_TYPE":"0","TLE_LINE2":"2 53627  53.2164 108.0301 0001774  46.2938 313.8200 15.08839044 17704","MEAN_MOTION_DDOT":"0.0000000000000","CENTER_NAME":"EARTH","RA_OF_ASC_NODE":"108.0301","DECAY_DATE":null,"FILE":"3714085","TIME_SYSTEM":"UTC","GP_ID":"221043462","NORAD_CAT_ID":"53627","LAUNCH_DATE":"2022-08-28","MEAN_MOTION":"15.08839044","REF_FRAME":"TEME"},{"NORAD_CAT_ID":"53628","LAUNCH_DATE":"2022-08-28","GP_ID":"221029659","FILE":"3713130","TIME_SYSTEM":"UTC","REF_FRAME":"TEME","MEAN_MOTION":"15.08851256","MEAN_MOTION_DDOT":"0.0000000000000","CENTER_NAME":"EARTH","TLE_LINE2":"2 53628  53.2172 109.4328 0002059  47.3259 312.7906 15.08851256 18344","MEAN_MOTION_DOT":"0.00003545","EPOCH":"2022-12-20T11:23:18.572928","BSTAR":"0.00024066000000","EPHEMERIS_TYPE":"0","MEAN_ANOMALY":"312.7906","DECAY_DATE":null,"RA_OF_ASC_NODE":"109.4328","OBJECT_NAME":"STARLINK-4600","ECCENTRICITY":"0.00020590","ELEMENT_SET_NO":"999","OBJECT_TYPE":"PAYLOAD","CLASSIFICATION_TYPE":"U","PERIAPSIS":"538.287","APOAPSIS":"541.135","INCLINATION":"53.2172","SITE":"AFETR","ARG_OF_PERICENTER":"47.3259","RCS_SIZE":"LARGE","COUNTRY_CODE":"US","PERIOD":"95.437","TLE_LINE1":"1 53628U 22104AS  22354.47452052  .00003545  00000-0  24066-3 0  9996","SEMIMAJOR_AXIS":"6917.846","REV_AT_EPOCH":"1834","OBJECT_ID":"2022-104AS","MEAN_ELEMENT_THEORY":"SGP4"},{"ELEMENT_SET_NO":"999","ECCENTRICITY":"0.00020040","OBJECT_NAME":"STARLINK-4602","OBJECT_TYPE":"PAYLOAD","CLASSIFICATION_TYPE":"U","PERIAPSIS":"538.333","INCLINATION":"53.2178","APOAPSIS":"541.106","ARG_OF_PERICENTER":"42.5020","SITE":"AFETR","COUNTRY_CODE":"US","RCS_SIZE":"LARGE","PERIOD":"95.437","TLE_LINE1":"1 53629U 22104AT  22354.48557258  .00000579  00000-0  54481-4 0  9991","SEMIMAJOR_AXIS":"6917.855","OBJECT_ID":"2022-104AT","REV_AT_EPOCH":"1834","MEAN_ELEMENT_THEORY":"SGP4","LAUNCH_DATE":"2022-08-28","NORAD_CAT_ID":"53629","GP_ID":"221029872","FILE":"3713130","TIME_SYSTEM":"UTC","REF_FRAME":"TEME","MEAN_MOTION":"15.08848426","CENTER_NAME":"EARTH","MEAN_MOTION_DDOT":"0.0000000000000","TLE_LINE2":"2 53629  53.2178 109.4922 0002004  42.5020 317.6127 15.08848426 18348","EPHEMERIS_TYPE":"0","BSTAR":"0.00005448100000","MEAN_MOTION_DOT":"0.00000579","EPOCH":"2022-12-20T11:39:13.470912","MEAN_ANOMALY":"317.6127","DECAY_DATE":null,"RA_OF_ASC_NODE":"109.4922"},{"SEMIMAJOR_AXIS":"6917.896","REV_AT_EPOCH":"1866","OBJECT_ID":"2022-104AU","MEAN_ELEMENT_THEORY":"SGP4","ARG_OF_PERICENTER":"50.9502","SITE":"AFETR","RCS_SIZE":"LARGE","COUNTRY_CODE":"US","TLE_LINE1":"1 53630U 22104AU  22354.58591704 -.00000238  00000-0  31618-5 0  9999","PERIOD":"95.438","PERIAPSIS":"538.628","APOAPSIS":"540.894","INCLINATION":"53.2185","OBJECT_NAME":"STARLINK-4598","ECCENTRICITY":"0.00016380","ELEMENT_SET_NO":"999","OBJECT_TYPE":"PAYLOAD","CLASSIFICATION_TYPE":"U","DECAY_DATE":null,"RA_OF_ASC_NODE":"99.4233","MEAN_MOTION_DDOT":"0.0000000000000","CENTER_NAME":"EARTH","TLE_LINE2":"2 53630  53.2185  99.4233 0001638  50.9502 309.1636 15.08834824 18664","MEAN_MOTION_DOT":"-0.00000238","BSTAR":"0.00000316180000","EPOCH":"2022-12-20T14:03:43.232256","EPHEMERIS_TYPE":"0","MEAN_ANOMALY":"309.1636","REF_FRAME":"TEME","MEAN_MOTION":"15.08834824","LAUNCH_DATE":"2022-08-28","NORAD_CAT_ID":"53630","GP_ID":"221030512","FILE":"3713130","TIME_SYSTEM":"UTC"}];
